CCSDS_OMM_VERS = 2.0
CREATION_DATE  = 
ORIGINATOR     = 

OBJECT_NAME    = STARLINK-4503
OBJECT_ID      = 2022-101B
CENTER_NAME    = EARTH
REF_FRAME      = TEME
TIME_SYSTEM    = UTC
MEAN_ELEMENT_THEORY = SGP/SGP4

EPOCH          = 2022-08-30T06:00:00.999648
MEAN_MOTION    = 15.74809144
ECCENTRICITY   = .0006501
INCLINATION    = 53.2172
RA_OF_ASC_NODE = 102.9914
ARG_OF_PERICENTER = 317.8011
MEAN_ANOMALY   = 30.8814

EPHEMERIS_TYPE = 0
CLASSIFICATION_TYPE = U
NORAD_CAT_ID   = 53528
ELEMENT_SET_NO = 999
REV_AT_EPOCH   = 166
BSTAR          = -.89875E-2
MEAN_MOTION_DOT = -.1202587E-1
MEAN_MOTION_DDOT = 0

CCSDS_OMM_VERS = 2.0
CREATION_DATE  = 
ORIGINATOR     = 

OBJECT_NAME    = STARLINK-4478
OBJECT_ID      = 2022-101C
CENTER_NAME    = EARTH
REF_FRAME      = TEME
TIME_SYSTEM    = UTC
MEAN_ELEMENT_THEORY = SGP/SGP4

EPOCH          = 2022-08-30T06:00:00.999648
MEAN_MOTION    = 15.74832534
ECCENTRICITY   = .0000807
INCLINATION    = 53.2172
RA_OF_ASC_NODE = 102.9882
ARG_OF_PERICENTER = 331.0276
MEAN_ANOMALY   = 18.7833

EPHEMERIS_TYPE = 0
CLASSIFICATION_TYPE = U
NORAD_CAT_ID   = 53529
ELEMENT_SET_NO = 999
REV_AT_EPOCH   = 166
BSTAR          = -.89E-2
MEAN_MOTION_DOT = -.1189561E-1
MEAN_MOTION_DDOT = 0

CCSDS_OMM_VERS = 2.0
CREATION_DATE  = 
ORIGINATOR     = 

OBJECT_NAME    = STARLINK-4482
OBJECT_ID      = 2022-101D
CENTER_NAME    = EARTH
REF_FRAME      = TEME
TIME_SYSTEM    = UTC
MEAN_ELEMENT_THEORY = SGP/SGP4

EPOCH          = 2022-08-30T06:00:00.999648
MEAN_MOTION    = 15.74869063
ECCENTRICITY   = .0000727
INCLINATION    = 53.2172
RA_OF_ASC_NODE = 102.9867
ARG_OF_PERICENTER = 13.3888
MEAN_ANOMALY   = 337.5341

EPHEMERIS_TYPE = 0
CLASSIFICATION_TYPE = U
NORAD_CAT_ID   = 53530
ELEMENT_SET_NO = 999
REV_AT_EPOCH   = 166
BSTAR          = -.89049E-2
MEAN_MOTION_DOT = -.1191802E-1
MEAN_MOTION_DDOT = 0

CCSDS_OMM_VERS = 2.0
CREATION_DATE  = 
ORIGINATOR     = 

OBJECT_NAME    = STARLINK-4487
OBJECT_ID      = 2022-101E
CENTER_NAME    = EARTH
REF_FRAME      = TEME
TIME_SYSTEM    = UTC
MEAN_ELEMENT_THEORY = SGP/SGP4

EPOCH          = 2022-08-30T06:00:00.999648
MEAN_MOTION    = 15.74852436
ECCENTRICITY   = .0000857
INCLINATION    = 53.2172
RA_OF_ASC_NODE = 102.9872
ARG_OF_PERICENTER = 22.6209
MEAN_ANOMALY   = 327.7449

EPHEMERIS_TYPE = 0
CLASSIFICATION_TYPE = U
NORAD_CAT_ID   = 53531
ELEMENT_SET_NO = 999
REV_AT_EPOCH   = 166
BSTAR          = -.89202E-2
MEAN_MOTION_DOT = -.1192903E-1
MEAN_MOTION_DDOT = 0

CCSDS_OMM_VERS = 2.0
CREATION_DATE  = 
ORIGINATOR     = 

OBJECT_NAME    = STARLINK-4483
OBJECT_ID      = 2022-101F
CENTER_NAME    = EARTH
REF_FRAME      = TEME
TIME_SYSTEM    = UTC
MEAN_ELEMENT_THEORY = SGP/SGP4

EPOCH          = 2022-08-30T06:00:00.999648
MEAN_MOTION    = 15.74885291
ECCENTRICITY   = .0001209
INCLINATION    = 53.2172
RA_OF_ASC_NODE = 102.9855
ARG_OF_PERICENTER = 343.1031
MEAN_ANOMALY   = 8.3776

EPHEMERIS_TYPE = 0
CLASSIFICATION_TYPE = U
NORAD_CAT_ID   = 53532
ELEMENT_SET_NO = 999
REV_AT_EPOCH   = 166
BSTAR          = -.88935E-2
MEAN_MOTION_DOT = -.1191427E-1
MEAN_MOTION_DDOT = 0

CCSDS_OMM_VERS = 2.0
CREATION_DATE  = 
ORIGINATOR     = 

OBJECT_NAME    = STARLINK-4493
OBJECT_ID      = 2022-101G
CENTER_NAME    = EARTH
REF_FRAME      = TEME
TIME_SYSTEM    = UTC
MEAN_ELEMENT_THEORY = SGP/SGP4

EPOCH          = 2022-08-30T06:00:00.999648
MEAN_MOTION    = 15.74901049
ECCENTRICITY   = .0000733
INCLINATION    = 53.2172
RA_OF_ASC_NODE = 102.9838
ARG_OF_PERICENTER = 16.4166
MEAN_ANOMALY   = 335.6225

EPHEMERIS_TYPE = 0
CLASSIFICATION_TYPE = U
NORAD_CAT_ID   = 53533
ELEMENT_SET_NO = 999
REV_AT_EPOCH   = 166
BSTAR          = -.88752E-2
MEAN_MOTION_DOT = -.1189762E-1
MEAN_MOTION_DDOT = 0

CCSDS_OMM_VERS = 2.0
CREATION_DATE  = 
ORIGINATOR     = 

OBJECT_NAME    = STARLINK-4488
OBJECT_ID      = 2022-101H
CENTER_NAME    = EARTH
REF_FRAME      = TEME
TIME_SYSTEM    = UTC
MEAN_ELEMENT_THEORY = SGP/SGP4

EPOCH          = 2022-08-30T06:00:00.999648
MEAN_MOTION    = 15.74969598
ECCENTRICITY   = .0001165
INCLINATION    = 53.2172
RA_OF_ASC_NODE = 102.9796
ARG_OF_PERICENTER = 347.0470
MEAN_ANOMALY   = 7.2118

EPHEMERIS_TYPE = 0
CLASSIFICATION_TYPE = U
NORAD_CAT_ID   = 53534
ELEMENT_SET_NO = 999
REV_AT_EPOCH   = 166
BSTAR          = -.88417E-2
MEAN_MOTION_DOT = -.1189154E-1
MEAN_MOTION_DDOT = 0

CCSDS_OMM_VERS = 2.0
CREATION_DATE  = 
ORIGINATOR     = 

OBJECT_NAME    = STARLINK-4138
OBJECT_ID      = 2022-101J
CENTER_NAME    = EARTH
REF_FRAME      = TEME
TIME_SYSTEM    = UTC
MEAN_ELEMENT_THEORY = SGP/SGP4

EPOCH          = 2022-08-30T06:00:00.999648
MEAN_MOTION    = 15.74933910
ECCENTRICITY   = .0000497
INCLINATION    = 53.2172
RA_OF_ASC_NODE = 102.9817
ARG_OF_PERICENTER = 294.9149
MEAN_ANOMALY   = 58.2341

EPHEMERIS_TYPE = 0
CLASSIFICATION_TYPE = U
NORAD_CAT_ID   = 53535
ELEMENT_SET_NO = 999
REV_AT_EPOCH   = 166
BSTAR          = -.88255E-2
MEAN_MOTION_DOT = -.1185265E-1
MEAN_MOTION_DDOT = 0

CCSDS_OMM_VERS = 2.0
CREATION_DATE  = 
ORIGINATOR     = 

OBJECT_NAME    = STARLINK-4053
OBJECT_ID      = 2022-101K
CENTER_NAME    = EARTH
REF_FRAME      = TEME
TIME_SYSTEM    = UTC
MEAN_ELEMENT_THEORY = SGP/SGP4

EPOCH          = 2022-08-30T06:00:00.999648
MEAN_MOTION    = 15.75002648
ECCENTRICITY   = .0000391
INCLINATION    = 53.2172
RA_OF_ASC_NODE = 102.9778
ARG_OF_PERICENTER = 20.1216
MEAN_ANOMALY   = 335.2481

EPHEMERIS_TYPE = 0
CLASSIFICATION_TYPE = U
NORAD_CAT_ID   = 53536
ELEMENT_SET_NO = 999
REV_AT_EPOCH   = 166
BSTAR          = -.88241E-2
MEAN_MOTION_DOT = -.1188237E-1
MEAN_MOTION_DDOT = 0

CCSDS_OMM_VERS = 2.0
CREATION_DATE  = 
ORIGINATOR     = 

OBJECT_NAME    = STARLINK-4120
OBJECT_ID      = 2022-101L
CENTER_NAME    = EARTH
REF_FRAME      = TEME
TIME_SYSTEM    = UTC
MEAN_ELEMENT_THEORY = SGP/SGP4

EPOCH          = 2022-08-30T06:00:00.999648
MEAN_MOTION    = 15.74918936
ECCENTRICITY   = .0000544
INCLINATION    = 53.2172
RA_OF_ASC_NODE = 102.9831
ARG_OF_PERICENTER = 24.9159
MEAN_ANOMALY   = 327.6763

EPHEMERIS_TYPE = 0
CLASSIFICATION_TYPE = U
NORAD_CAT_ID   = 53537
ELEMENT_SET_NO = 999
REV_AT_EPOCH   = 166
BSTAR          = -.88607E-2
MEAN_MOTION_DOT = -.1188784E-1
MEAN_MOTION_DDOT = 0

CCSDS_OMM_VERS = 2.0
CREATION_DATE  = 
ORIGINATOR     = 

OBJECT_NAME    = STARLINK-4118
OBJECT_ID      = 2022-101M
CENTER_NAME    = EARTH
REF_FRAME      = TEME
TIME_SYSTEM    = UTC
MEAN_ELEMENT_THEORY = SGP/SGP4

EPOCH          = 2022-08-30T06:00:00.999648
MEAN_MOTION    = 15.75021892
ECCENTRICITY   = .0000588
INCLINATION    = 53.2172
RA_OF_ASC_NODE = 102.9768
ARG_OF_PERICENTER = 21.1218
MEAN_ANOMALY   = 334.7973

EPHEMERIS_TYPE = 0
CLASSIFICATION_TYPE = U
NORAD_CAT_ID   = 53538
ELEMENT_SET_NO = 999
REV_AT_EPOCH   = 166
BSTAR          = -.88239E-2
MEAN_MOTION_DOT = -.1189192E-1
MEAN_MOTION_DDOT = 0

CCSDS_OMM_VERS = 2.0
CREATION_DATE  = 
ORIGINATOR     = 

OBJECT_NAME    = STARLINK-4123
OBJECT_ID      = 2022-101N
CENTER_NAME    = EARTH
REF_FRAME      = TEME
TIME_SYSTEM    = UTC
MEAN_ELEMENT_THEORY = SGP/SGP4

EPOCH          = 2022-08-30T06:00:00.999648
MEAN_MOTION    = 15.74951017
ECCENTRICITY   = .0000865
INCLINATION    = 53.2172
RA_OF_ASC_NODE = 102.9807
ARG_OF_PERICENTER = 342.9774
MEAN_ANOMALY   = 10.7280

EPHEMERIS_TYPE = 0
CLASSIFICATION_TYPE = U
NORAD_CAT_ID   = 53539
ELEMENT_SET_NO = 999
REV_AT_EPOCH   = 166
BSTAR          = -.8829E-2
MEAN_MOTION_DOT = -.1186637E-1
MEAN_MOTION_DDOT = 0

