STARLINK-4503           
1 53528U 22101B   22242.25001157 -.01202587  00000+0 -89875-2 0  9997
2 53528  53.2172 102.9914 0006501 317.8011  30.8814 15.74809144  1664
STARLINK-4478           
1 53529U 22101C   22242.25001157 -.01189561  00000+0 -89000-2 0  9994
2 53529  53.2172 102.9882 0000807 331.0276  18.7833 15.74832534  1668
STARLINK-4482           
1 53530U 22101D   22242.25001157 -.01191802  00000+0 -89049-2 0  9990
2 53530  53.2172 102.9867 0000727  13.3888 337.5341 15.74869063  1666
STARLINK-4487           
1 53531U 22101E   22242.25001157 -.01192903  00000+0 -89202-2 0  9995
2 53531  53.2172 102.9872 0000857  22.6209 327.7449 15.74852436  1663
STARLINK-4483           
1 53532U 22101F   22242.25001157 -.01191427  00000+0 -88935-2 0  9998
2 53532  53.2172 102.9855 0001209 343.1031   8.3776 15.74885291  1661
STARLINK-4493           
1 53533U 22101G   22242.25001157 -.01189762  00000+0 -88752-2 0  9995
2 53533  53.2172 102.9838 0000733  16.4166 335.6225 15.74901049  1668
STARLINK-4488           
1 53534U 22101H   22242.25001157 -.01189154  00000+0 -88417-2 0  9999
2 53534  53.2172 102.9796 0001165 347.0470   7.2118 15.74969598  1669
STARLINK-4138           
1 53535U 22101J   22242.25001157 -.01185265  00000+0 -88255-2 0  9999
2 53535  53.2172 102.9817 0000497 294.9149  58.2341 15.74933910  1667
STARLINK-4053           
1 53536U 22101K   22242.25001157 -.01188237  00000+0 -88241-2 0  9997
2 53536  53.2172 102.9778 0000391  20.1216 335.2481 15.75002648  1660
STARLINK-4120           
1 53537U 22101L   22242.25001157 -.01188784  00000+0 -88607-2 0  9991
2 53537  53.2172 102.9831 0000544  24.9159 327.6763 15.74918936  1662
STARLINK-4118           
1 53538U 22101M   22242.25001157 -.01189192  00000+0 -88239-2 0  9997
2 53538  53.2172 102.9768 0000588  21.1218 334.7973 15.75021892  1664
STARLINK-4123           
1 53539U 22101N   22242.25001157 -.01186637  00000+0 -88290-2 0  9996
2 53539  53.2172 102.9807 0000865 342.9774  10.7280 15.74951017  1660
